$$SOE
2460154.500000000, A.D. 2023-Jul-29 00:00:00.0000, -5.980771273591976E+08, -3.558622811855590E+08, 5.497278246121225E+07,
2460161.500000000, A.D. 2023-Aug-05 00:00:00.0000, -5.949553850639927E+08, -3.627462968079030E+08, 5.549181535761423E+07,
2460168.500000000, A.D. 2023-Aug-12 00:00:00.0000, -5.917491505523558E+08, -3.695787755751805E+08, 5.600296291527168E+07,
2460175.500000000, A.D. 2023-Aug-19 00:00:00.0000, -5.884592048037518E+08, -3.763589505003545E+08, 5.650618318535414E+07,
2460182.500000000, A.D. 2023-Aug-26 00:00:00.0000, -5.850863285709865E+08, -3.830860645744536E+08, 5.700143508138320E+07,
2460189.500000000, A.D. 2023-Sep-02 00:00:00.0000, -5.816313023873228E+08, -3.897593705457742E+08, 5.748867836145735E+07,
2460196.500000000, A.D. 2023-Sep-09 00:00:00.0000, -5.780949065641536E+08, -3.963781308156226E+08, 5.796787359965587E+07,
2460203.500000000, A.D. 2023-Sep-16 00:00:00.0000, -5.744779210106617E+08, -4.029416175085276E+08, 5.843898212647758E+07,
2460210.500000000, A.D. 2023-Sep-23 00:00:00.0000, -5.707811244588994E+08, -4.094491124300429E+08, 5.890196592361709E+07,
2460217.500000000, A.D. 2023-Sep-30 00:00:00.0000, -5.670052934336263E+08, -4.158999057212800E+08, 5.935678760160622E+07,
2460224.500000000, A.D. 2023-Oct-07 00:00:00.0000, -5.631512033203199E+08, -4.222932937529220E+08, 5.980341063193683E+07,
2460231.500000000, A.D. 2023-Oct-14 00:00:00.0000, -5.592196304913417E+08, -4.286285795720693E+08, 6.024179946767133E+07,
2460238.500000000, A.D. 2023-Oct-21 00:00:00.0000, -5.552113522618395E+08, -4.349050742993208E+08, 6.067191938760933E+07,
2460245.500000000, A.D. 2023-Oct-28 00:00:00.0000, -5.511271460997316E+08, -4.411220972157483E+08, 6.109373637960429E+07,
2460252.500000000, A.D. 2023-Nov-04 00:00:00.0000, -5.469677893395392E+08, -4.472789753099418E+08, 6.150721711494920E+07,
2460259.500000000, A.D. 2023-Nov-11 00:00:00.0000, -5.427340592222568E+08, -4.533750428849685E+08, 6.191232894874711E+07,
2460266.500000000, A.D. 2023-Nov-18 00:00:00.0000, -5.384267330416461E+08, -4.594096412896295E+08, 6.230903992111513E+07,
2460273.500000000, A.D. 2023-Nov-25 00:00:00.0000, -5.340465883241082E+08, -4.653821187515201E+08, 6.269731875461534E+07,
2460280.500000000, A.D. 2023-Dec-02 00:00:00.0000, -5.295944030139565E+08, -4.712918303231201E+08, 6.307713484460111E+07,
2460287.500000000, A.D. 2023-Dec-09 00:00:00.0000, -5.250709555862662E+08, -4.771381379998230E+08, 6.344845823064946E+07,
2460294.500000000, A.D. 2023-Dec-16 00:00:00.0000, -5.204770247997593E+08, -4.829204109973190E+08, 6.381125952377979E+07,
2460301.500000000, A.D. 2023-Dec-23 00:00:00.0000, -5.158133887412631E+08, -4.886380255008165E+08, 6.416550981364214E+07,
2460308.500000000, A.D. 2023-Dec-30 00:00:00.0000, -5.110808245018575E+08, -4.942903628367128E+08, 6.451118076422213E+07,
2460315.500000000, A.D. 2024-Jan-06 00:00:00.0000, -5.062801102569960E+08, -4.998768084273640E+08, 6.484824486751197E+07,
2460322.500000000, A.D. 2024-Jan-13 00:00:00.0000, -5.014120265779218E+08, -5.053967533360123E+08, 6.517667541625932E+07,
2460329.500000000, A.D. 2024-Jan-20 00:00:00.0000, -4.964773557510190E+08, -5.108495953171923E+08, 6.549644633543372E+07,
2460336.500000000, A.D. 2024-Jan-27 00:00:00.0000, -4.914768811337372E+08, -5.162347387200227E+08, 6.580753211152208E+07,
2460343.500000000, A.D. 2024-Feb-03 00:00:00.0000, -4.864113869750984E+08, -5.215515941926700E+08, 6.610990778111634E+07,
2460350.500000000, A.D. 2024-Feb-10 00:00:00.0000, -4.812816584230458E+08, -5.267995784790273E+08, 6.640354892928338E+07,
2460357.500000000, A.D. 2024-Feb-17 00:00:00.0000, -4.760884815796944E+08, -5.319781142998379E+08, 6.668843168543571E+07,
2460364.500000000, A.D. 2024-Feb-24 00:00:00.0000, -4.708326435685028E+08, -5.370866303037227E+08, 6.696453271448043E+07,
2460371.500000000, A.D. 2024-Mar-02 00:00:00.0000, -4.655149325841233E+08, -5.421245611208700E+08, 6.723182919783008E+07,
2460378.500000000, A.D. 2024-Mar-09 00:00:00.0000, -4.601361377863119E+08, -5.470913475823814E+08, 6.749029878636894E+07,
2460385.500000000, A.D. 2024-Mar-16 00:00:00.0000, -4.546970486427813E+08, -5.519864369080303E+08, 6.773991950522333E+07,
2460392.500000000, A.D. 2024-Mar-23 00:00:00.0000, -4.491984538246737E+08, -5.568092817532554E+08, 6.798066971044379E+07,
2460399.500000000, A.D. 2024-Mar-30 00:00:00.0000, -4.436411418957086E+08, -5.615593381419507E+08, 6.821252830092749E+07,
2460406.500000000, A.D. 2024-Apr-06 00:00:00.0000, -4.380259035388107E+08, -5.662360656526426E+08, 6.843547488684550E+07,
2460413.500000000, A.D. 2024-Apr-13 00:00:00.0000, -4.323535317691689E+08, -5.708389290217930E+08, 6.864948965723699E+07,
2460420.500000000, A.D. 2024-Apr-20 00:00:00.0000, -4.266248210860347E+08, -5.753673984875175E+08, 6.885455325289291E+07,
2460427.500000000, A.D. 2024-Apr-27 00:00:00.0000, -4.208405670802341E+08, -5.798209494348233E+08, 6.905064673781124E+07,
2460434.500000000, A.D. 2024-May-04 00:00:00.0000, -4.150015664093135E+08, -5.841990620454665E+08, 6.923775160369578E+07,
2460441.500000000, A.D. 2024-May-11 00:00:00.0000, -4.091086169018110E+08, -5.885012210539497E+08, 6.941584977737612E+07,
2460448.500000000, A.D. 2024-May-18 00:00:00.0000, -4.031625177085519E+08, -5.927269155877690E+08, 6.958492362551212E+07,
2460455.500000000, A.D. 2024-May-25 00:00:00.0000, -3.971640694761809E+08, -5.968756390987418E+08, 6.974495595390749E+07,
2460462.500000000, A.D. 2024-Jun-01 00:00:00.0000, -3.911140744830476E+08, -6.009468894425498E+08, 6.989592999146861E+07,
2460469.500000000, A.D. 2024-Jun-08 00:00:00.0000, -3.850133364910734E+08, -6.049401691291795E+08, 7.003782933459422E+07,
2460476.500000000, A.D. 2024-Jun-15 00:00:00.0000, -3.788626599140831E+08, -6.088549851989133E+08, 7.017063786017126E+07,
2460483.500000000, A.D. 2024-Jun-22 00:00:00.0000, -3.726628493077947E+08, -6.126908475484335E+08, 7.029433979568151E+07,
2460490.500000000, A.D. 2024-Jun-29 00:00:00.0000, -3.664147113029399E+08, -6.164472675275600E+08, 7.040891999244213E+07,
2460497.500000000, A.D. 2024-Jul-06 00:00:00.0000, -3.601190563364167E+08, -6.201237592778047E+08, 7.051436395765105E+07,
2460504.500000000, A.D. 2024-Jul-13 00:00:00.0000, -3.537766982313969E+08, -6.237198409888418E+08, 7.061065769745570E+07,
2460511.500000000, A.D. 2024-Jul-20 00:00:00.0000, -3.473884536122319E+08, -6.272350349241800E+08, 7.069778764718279E+07,
2460518.500000000, A.D. 2024-Jul-27 00:00:00.0000, -3.409551418101878E+08, -6.306688671753297E+08, 7.077574067049399E+07,
2460525.500000000, A.D. 2024-Aug-03 00:00:00.0000, -3.344775849870269E+08, -6.340208675192583E+08, 7.084450407170305E+07,
2460532.500000000, A.D. 2024-Aug-10 00:00:00.0000, -3.279566083106207E+08, -6.372905693834357E+08, 7.090406560553664E+07,
2460539.500000000, A.D. 2024-Aug-17 00:00:00.0000, -3.213930401352656E+08, -6.404775098965545E+08, 7.095441348158357E+07,
2460546.500000000, A.D. 2024-Aug-24 00:00:00.0000, -3.147877121589392E+08, -6.435812300469289E+08, 7.099553635884893E+07,
2460553.500000000, A.D. 2024-Aug-31 00:00:00.0000, -3.081414594419921E+08, -6.466012750097504E+08, 7.102742331455395E+07,
2460560.500000000, A.D. 2024-Sep-07 00:00:00.0000, -3.014551199219154E+08, -6.495371945164378E+08, 7.105006376374343E+07,
2460567.500000000, A.D. 2024-Sep-14 00:00:00.0000, -2.947295333390477E+08, -6.523885422697413E+08, 7.106344740301627E+07,
2460574.500000000, A.D. 2024-Sep-21 00:00:00.0000, -2.879655416019942E+08, -6.551548739914240E+08, 7.106756439791167E+07,
2460581.500000000, A.D. 2024-Sep-28 00:00:00.0000, -2.811639910799516E+08, -6.578357473296967E+08, 7.106240559462151E+07,
2460588.500000000, A.D. 2024-Oct-05 00:00:00.0000, -2.743257331519756E+08, -6.604307236247368E+08, 7.104796241940540E+07,
2460595.500000000, A.D. 2024-Oct-12 00:00:00.0000, -2.674516233737770E+08, -6.629393685523224E+08, 7.102422674226150E+07,
2460602.500000000, A.D. 2024-Oct-19 00:00:00.0000, -2.605425210129909E+08, -6.653612519164040E+08, 7.099119084329826E+07,
2460609.500000000, A.D. 2024-Oct-26 00:00:00.0000, -2.535992889852718E+08, -6.676959473919283E+08, 7.094884741928175E+07,
2460616.500000000, A.D. 2024-Nov-02 00:00:00.0000, -2.466227939338296E+08, -6.699430323661859E+08, 7.089718959465340E+07,
2460623.500000000, A.D. 2024-Nov-09 00:00:00.0000, -2.396139063557357E+08, -6.721020878578191E+08, 7.083621092989537E+07,
2460630.500000000, A.D. 2024-Nov-16 00:00:00.0000, -2.325735007490184E+08, -6.741726985130367E+08, 7.076590542495766E+07,
2460637.500000000, A.D. 2024-Nov-23 00:00:00.0000, -2.255024557335407E+08, -6.761544527287276E+08, 7.068626750944936E+07,
2460644.500000000, A.D. 2024-Nov-30 00:00:00.0000, -2.184016539373111E+08, -6.780469429449222E+08, 7.059729199710414E+07,
2460651.500000000, A.D. 2024-Dec-07 00:00:00.0000, -2.112719812287587E+08, -6.798497656857831E+08, 7.049897400054216E+07,
2460658.500000000, A.D. 2024-Dec-14 00:00:00.0000, -2.041143259835776E+08, -6.815625201249003E+08, 7.039130896963257E+07,
2460665.500000000, A.D. 2024-Dec-21 00:00:00.0000, -1.969295807045720E+08, -6.831848064153143E+08, 7.027429296482894E+07,
2460672.500000000, A.D. 2024-Dec-28 00:00:00.0000, -1.897186440217630E+08, -6.847162267514582E+08, 7.014792274218562E+07,
2460679.500000000, A.D. 2025-Jan-04 00:00:00.0000, -1.824824204754168E+08, -6.861563867870660E+08, 7.001219560626116E+07,
2460686.500000000, A.D. 2025-Jan-11 00:00:00.0000, -1.752218199032830E+08, -6.875048957493596E+08, 6.986710933387962E+07,
2460693.500000000, A.D. 2025-Jan-18 00:00:00.0000, -1.679377573489382E+08, -6.887613661682694E+08, 6.971266217802957E+07,
2460700.500000000, A.D. 2025-Jan-25 00:00:00.0000, -1.606311532476154E+08, -6.899254136951710E+08, 6.954885289103362E+07,
2460707.500000000, A.D. 2025-Feb-01 00:00:00.0000, -1.533029336998323E+08, -6.909966570412462E+08, 6.937568074739066E+07,
2460714.500000000, A.D. 2025-Feb-08 00:00:00.0000, -1.459540307742258E+08, -6.919747180158478E+08, 6.919314556277081E+07,
$$EOE